{"type":"FeatureCollection","features":[{"type":"Feature","id":"departamento.1274","geometry":{"type":"MultiPolygon","coordinates":[[[[-60.13812256,-33.35906982],[-60.11254949,-33.37223158],[-60.11108398,-33.37298584],[-60.09881592,-33.38311767],[-60.09279957,-33.38891468],[-60.08709717,-33.39440918],[-60.08702304,-33.39458131],[-60.08410146,-33.40136548],[-60.08267379,-33.40541057],[-60.08005638,-33.41088333],[-60.07935196,-33.41279533],[-60.07879253,-33.41431378],[-60.07842007,-33.41532475],[-60.07839076,-33.4154043],[-60.07529746,-33.42016323],[-60.07220416,-33.4246842],[-60.07042739,-33.42615197],[-60.07040003,-33.42617457],[-60.06780468,-33.42831856],[-60.0667314,-33.42920518],[-60.06648841,-33.42941958],[-60.06394482,-33.43166392],[-60.06268631,-33.43277437],[-60.05604278,-33.43941791],[-60.05578588,-33.43967481],[-60.05578211,-33.43967758],[-60.0512649,-33.44300605],[-60.04910688,-33.44452466],[-60.04543098,-33.4471114],[-60.04499865,-33.44741564],[-60.04484036,-33.44752703],[-60.03936088,-33.45040375],[-60.03702319,-33.45163104],[-60.03532251,-33.4525239],[-60.03412483,-33.45310813],[-60.03366286,-33.45333348],[-60.02601727,-33.45706304],[-60.02556672,-33.45728282],[-60.01033817,-33.4644212],[-60.006918,-33.46620564],[-60.00268746,-33.46841288],[-59.99939265,-33.47013191],[-59.98963686,-33.47179753],[-59.98294021,-33.47179753],[-59.9810708,-33.47179753],[-59.980718,-33.47175602],[-59.97702572,-33.47132164],[-59.9767136,-33.47128002],[-59.97345653,-33.47084575],[-59.97036323,-33.47036985],[-59.96798377,-33.47036985],[-59.9598936,-33.47084575],[-59.95763739,-33.47102624],[-59.95394495,-33.47132164],[-59.94847219,-33.47203548],[-59.94276148,-33.47251137],[-59.93907301,-33.4733966],[-59.93681283,-33.47393905],[-59.93300569,-33.47489083],[-59.93295694,-33.47491742],[-59.92777088,-33.47774618],[-59.92640647,-33.47850418],[-59.92348785,-33.48012564],[-59.92233189,-33.48167639],[-59.92059326,-33.48400879],[-59.92027449,-33.4844677],[-59.91351318,-33.49420166],[-59.90889216,-33.49977061],[-59.90784692,-33.50068574],[-59.90759277,-33.50097656],[-59.90710557,-33.5013348],[-59.90369754,-33.50431859],[-59.90119824,-33.50650677],[-59.89745059,-33.50882674],[-59.89474395,-33.51028416],[-59.89114502,-33.5118903],[-59.89053907,-33.51207966],[-59.88996047,-33.51226047],[-59.88928719,-33.51247087],[-59.88781377,-33.51293131],[-59.88696654,-33.5130883],[-59.88435922,-33.51357142],[-59.87800647,-33.51474855],[-59.87770106,-33.51480514],[-59.87175241,-33.51572718],[-59.86901603,-33.51614358],[-59.86848798,-33.51621273],[-59.86695283,-33.51641377],[-59.86495311,-33.5165314],[-59.8623357,-33.51676934],[-59.86128257,-33.51693563],[-59.85928998,-33.51703588],[-59.85724231,-33.51708089],[-59.85658334,-33.51709537],[-59.85293141,-33.5174948],[-59.85087264,-33.51771998],[-59.85007396,-33.51778653],[-59.84966043,-33.51782099],[-59.8494832,-33.51783576],[-59.84776998,-33.51797853],[-59.84742734,-33.51800709],[-59.84658961,-33.5180769],[-59.84551412,-33.5183321],[-59.84471883,-33.51852081],[-59.84132505,-33.51932611],[-59.8373692,-33.52009944],[-59.83394872,-33.52125943],[-59.82874365,-33.52462041],[-59.82702372,-33.52629284],[-59.82318115,-33.5300293],[-59.81996939,-33.5337516],[-59.81524021,-33.54050332],[-59.81292023,-33.54428071],[-59.81086795,-33.54835554],[-59.8095295,-33.55165704],[-59.80869669,-33.5549288],[-59.80845875,-33.55864671],[-59.808429,-33.56114514],[-59.80872643,-33.56325691],[-59.81015411,-33.57122811],[-59.81155204,-33.58095415],[-59.81101667,-33.58493975],[-59.81061014,-33.58582672],[-59.814011,-33.593024],[-59.815708,-33.591885],[-59.816014,-33.591308],[-59.816489,-33.590347],[-59.81719,-33.589423],[-59.817576,-33.588557],[-59.818232,-33.587615],[-59.818623,-33.586679],[-59.818314,-33.585956],[-59.81927437,-33.58342778],[-59.819525,-33.582768],[-59.820669,-33.58238],[-59.82199828,-33.58268852],[-59.822414,-33.582785],[-59.827921,-33.581359],[-59.830659,-33.580338],[-59.83072852,-33.58028717],[-59.831377,-33.579813],[-59.8322949,-33.58104978],[-59.832822,-33.58176],[-59.835683,-33.584113],[-59.84406,-33.591685],[-59.845857,-33.593309],[-59.853149,-33.599781],[-59.863056,-33.608638],[-59.872694,-33.617227],[-59.88029961,-33.62408479],[-59.883261,-33.626755],[-59.892863,-33.63524],[-59.897017,-33.638968],[-59.904535,-33.645779],[-59.91022326,-33.65076359],[-59.91713742,-33.65682241],[-59.91827284,-33.65781738],[-59.918455,-33.657977],[-59.91891476,-33.65839053],[-59.94102,-33.678273],[-59.94464,-33.681497],[-59.96588667,-33.70057747],[-59.967562,-33.702082],[-59.977807,-33.71131],[-59.98038753,-33.71365993],[-59.988438,-33.720991],[-59.997706,-33.729343],[-60.001847,-33.733063],[-60.008874,-33.739445],[-60.014473,-33.744475],[-60.0146161,-33.7445632],[-60.015036,-33.744822],[-60.022205,-33.751284],[-60.027858,-33.756509],[-60.030188,-33.758662],[-60.03264494,-33.76148321],[-60.033385,-33.762333],[-60.03501107,-33.76369204],[-60.03713,-33.765463],[-60.041144,-33.768819],[-60.045165,-33.765375],[-60.04628229,-33.76584095],[-60.046304,-33.76585],[-60.04676473,-33.76546138],[-60.051722,-33.76128],[-60.067219,-33.773948],[-60.068991,-33.775961],[-60.069279,-33.776149],[-60.072396,-33.778549],[-60.072709,-33.778856],[-60.07101014,-33.78054622],[-60.07094,-33.780616],[-60.068326,-33.78286],[-60.062635,-33.78775],[-60.060606,-33.789447],[-60.057834,-33.791752],[-60.053185,-33.795641],[-60.049142,-33.799052],[-60.047065,-33.800927],[-60.04681199,-33.80112708],[-60.04571637,-33.80199354],[-60.045473,-33.802186],[-60.041931,-33.805197],[-60.04045727,-33.80642339],[-60.038785,-33.807815],[-60.036902,-33.809426],[-60.034182,-33.811684],[-60.03235,-33.813275],[-60.02682575,-33.81791883],[-60.02096958,-33.82284167],[-60.018728,-33.824726],[-60.016753,-33.826422],[-60.0169201,-33.82643584],[-60.017236,-33.826462],[-60.017937,-33.826394],[-60.018729,-33.826332],[-60.019474,-33.826298],[-60.019882,-33.826243],[-60.020316,-33.826142],[-60.020622,-33.826127],[-60.021002,-33.82623],[-60.021355,-33.826326],[-60.021701,-33.826426],[-60.02177688,-33.82646179],[-60.02186,-33.826501],[-60.02202214,-33.82646358],[-60.022042,-33.826459],[-60.022252,-33.826387],[-60.022518,-33.826423],[-60.02260633,-33.82642797],[-60.023104,-33.826456],[-60.02318485,-33.8264672],[-60.02333133,-33.82648749],[-60.02352142,-33.82651382],[-60.02352146,-33.82651383],[-60.0235215,-33.82651384],[-60.0242887,-33.8266227],[-60.02429539,-33.82662365],[-60.02432638,-33.82662804],[-60.02435369,-33.82663192],[-60.02472927,-33.82668521],[-60.02513927,-33.82674339],[-60.025301,-33.826727],[-60.027089,-33.826666],[-60.02781693,-33.82654919],[-60.02856886,-33.82642852],[-60.028703,-33.826407],[-60.02946,-33.826346],[-60.03078873,-33.82632441],[-60.030937,-33.826322],[-60.031393,-33.826406],[-60.031886,-33.82655],[-60.03193825,-33.82657438],[-60.032752,-33.826954],[-60.033291,-33.826999],[-60.03436143,-33.8270441],[-60.034549,-33.827052],[-60.03482355,-33.82706356],[-60.035808,-33.827105],[-60.036698,-33.827212],[-60.037713,-33.827286],[-60.038448,-33.827457],[-60.039169,-33.827494],[-60.040316,-33.827505],[-60.04050566,-33.82746249],[-60.04072414,-33.82741352],[-60.040756,-33.827434],[-60.04092084,-33.82744704],[-60.040933,-33.827448],[-60.04095051,-33.82744355],[-60.04096501,-33.82743986],[-60.041106,-33.827404],[-60.041247,-33.82735],[-60.04132288,-33.82727667],[-60.04186,-33.827088],[-60.042713,-33.827002],[-60.04338481,-33.82703626],[-60.043419,-33.827038],[-60.04359219,-33.8270348],[-60.04365507,-33.82703364],[-60.04473458,-33.82701371],[-60.044773,-33.827013],[-60.045538,-33.827258],[-60.04559492,-33.82726665],[-60.04578462,-33.8272955],[-60.045858,-33.827336],[-60.046015,-33.827373],[-60.046188,-33.827424],[-60.046377,-33.827512],[-60.04648,-33.827471],[-60.046631,-33.827423],[-60.04670722,-33.82743282],[-60.046763,-33.82744],[-60.04683464,-33.82738774],[-60.047215,-33.827393],[-60.04859,-33.827056],[-60.04963109,-33.82655285],[-60.050326,-33.826217],[-60.05042038,-33.82620062],[-60.050545,-33.826179],[-60.051193,-33.826125],[-60.0519227,-33.8259501],[-60.05196,-33.825957],[-60.052236,-33.82589],[-60.05245908,-33.82582153],[-60.052624,-33.825782],[-60.05265359,-33.82577133],[-60.05276194,-33.82573227],[-60.05385913,-33.82533671],[-60.05386377,-33.82533504],[-60.053881,-33.825323],[-60.05389303,-33.8253129],[-60.054155,-33.825093],[-60.054531,-33.824777],[-60.054736,-33.824635],[-60.055022,-33.824537],[-60.055286,-33.824394],[-60.055514,-33.824173],[-60.05581,-33.823905],[-60.056068,-33.823792],[-60.056321,-33.823726],[-60.05638424,-33.82369616],[-60.05674044,-33.82352812],[-60.056764,-33.823517],[-60.056994,-33.823484],[-60.05710981,-33.82340951],[-60.057235,-33.823329],[-60.057802,-33.822811],[-60.058034,-33.822569],[-60.058239,-33.82249],[-60.058299,-33.822381],[-60.058401,-33.822335],[-60.058593,-33.822276],[-60.05875,-33.822078],[-60.058841,-33.82191],[-60.058881,-33.821785],[-60.058994,-33.821675],[-60.05909281,-33.82164464],[-60.05916,-33.821624],[-60.059269,-33.821536],[-60.05929595,-33.82142905],[-60.0593,-33.821413],[-60.059289,-33.821254],[-60.059404,-33.821168],[-60.05947036,-33.82116243],[-60.059535,-33.821157],[-60.059682,-33.821115],[-60.059916,-33.820915],[-60.0600007,-33.82077041],[-60.060056,-33.820676],[-60.060096,-33.820488],[-60.060257,-33.820359],[-60.06027,-33.82033482],[-60.06037705,-33.82013562],[-60.060501,-33.819905],[-60.060576,-33.819688],[-60.06057819,-33.81963455],[-60.060581,-33.819566],[-60.06062947,-33.81952905],[-60.060724,-33.819457],[-60.06072816,-33.81940345],[-60.060732,-33.819354],[-60.060758,-33.819234],[-60.06101618,-33.81900459],[-60.06116692,-33.81900815],[-60.06256,-33.819041],[-60.06289319,-33.81881476],[-60.063026,-33.818805],[-60.06328,-33.818739],[-60.063473,-33.818633],[-60.063639,-33.818429],[-60.063947,-33.818204],[-60.064255,-33.817963],[-60.06437176,-33.81784663],[-60.06439084,-33.81782762],[-60.064547,-33.817672],[-60.06457894,-33.81762908],[-60.06473057,-33.81742531],[-60.064768,-33.817375],[-60.064999,-33.817268],[-60.065242,-33.817141],[-60.065546,-33.817124],[-60.06578,-33.817089],[-60.065996,-33.817189],[-60.06603129,-33.81721081],[-60.06615794,-33.81728911],[-60.066161,-33.817291],[-60.066264,-33.817305],[-60.06635396,-33.81729265],[-60.066705,-33.817299],[-60.06676385,-33.81728806],[-60.0668444,-33.8172731],[-60.06689292,-33.81729368],[-60.066955,-33.81732],[-60.067144,-33.817325],[-60.067341,-33.817246],[-60.06740946,-33.81721252],[-60.06775,-33.817046],[-60.06800073,-33.81689094],[-60.06813,-33.816811],[-60.068684,-33.816587],[-60.069227,-33.816343],[-60.069482,-33.816243],[-60.0696,-33.816196],[-60.069718,-33.816201],[-60.069792,-33.81627],[-60.06980152,-33.816339],[-60.069808,-33.816386],[-60.06981046,-33.81646964],[-60.069812,-33.816522],[-60.069919,-33.816597],[-60.070134,-33.81663],[-60.07037004,-33.81656167],[-60.070438,-33.816542],[-60.07064,-33.81642],[-60.07078738,-33.81638243],[-60.070844,-33.816368],[-60.071051,-33.816244],[-60.0710997,-33.81620289],[-60.07120184,-33.81611667],[-60.071282,-33.816049],[-60.071522,-33.815928],[-60.071693,-33.815909],[-60.071793,-33.815979],[-60.07182353,-33.81601282],[-60.07191895,-33.81611852],[-60.071948,-33.816117],[-60.0720318,-33.81607238],[-60.072271,-33.815945],[-60.07234711,-33.8158917],[-60.07237484,-33.81587227],[-60.072382,-33.815859],[-60.072499,-33.815721],[-60.072679,-33.815488],[-60.07287,-33.815292],[-60.07302,-33.815217],[-60.07311656,-33.81520146],[-60.073194,-33.815189],[-60.073285,-33.815105],[-60.073424,-33.815054],[-60.073582,-33.815031],[-60.073794,-33.814891],[-60.07384069,-33.8148347],[-60.073901,-33.814762],[-60.07393742,-33.81472124],[-60.07401,-33.81464],[-60.07413796,-33.81455525],[-60.074164,-33.814538],[-60.074291,-33.814393],[-60.074336,-33.814277],[-60.074298,-33.814181],[-60.07427416,-33.81405416],[-60.07427,-33.814032],[-60.074278,-33.813928],[-60.07430494,-33.81390309],[-60.074371,-33.813842],[-60.07437611,-33.8138145],[-60.074387,-33.813756],[-60.074448,-33.813674],[-60.074575,-33.813641],[-60.074693,-33.813571],[-60.074792,-33.813443],[-60.074839,-33.813332],[-60.074966,-33.813239],[-60.07504484,-33.81315776],[-60.075294,-33.812901],[-60.07538991,-33.81282514],[-60.075667,-33.812606],[-60.076116,-33.812429],[-60.076433,-33.812206],[-60.07675,-33.811954],[-60.07716,-33.811765],[-60.07759407,-33.81145446],[-60.077803,-33.811305],[-60.078133,-33.811393],[-60.079959,-33.81043],[-60.080814,-33.810099],[-60.082667,-33.809326],[-60.08716519,-33.8122631],[-60.08733634,-33.81237486],[-60.08838884,-33.81306208],[-60.094017,-33.816737],[-60.095761,-33.816398],[-60.10720212,-33.81693341],[-60.107407,-33.816943],[-60.10961,-33.813544],[-60.111958,-33.810063],[-60.11551829,-33.80483371],[-60.1183,-33.800748],[-60.11903226,-33.79964192],[-60.12019796,-33.79788112],[-60.125252,-33.790247],[-60.125468,-33.789947],[-60.13246858,-33.77979374],[-60.133564,-33.778205],[-60.13434241,-33.77708463],[-60.14017,-33.768697],[-60.14357441,-33.76380754],[-60.1469047,-33.75902453],[-60.14931,-33.75557],[-60.15037907,-33.75402062],[-60.151242,-33.75277],[-60.15157563,-33.75229053],[-60.15404212,-33.74874593],[-60.15518649,-33.74710136],[-60.15637908,-33.74547693],[-60.15633878,-33.74540143],[-60.15540762,-33.74365701],[-60.15456074,-33.7420705],[-60.15072762,-33.73452764],[-60.150678,-33.73443],[-60.14879828,-33.73074643],[-60.146714,-33.726662],[-60.140351,-33.714183],[-60.138771,-33.711128],[-60.138795,-33.710869],[-60.13932033,-33.70737739],[-60.139474,-33.706356],[-60.14106297,-33.6944369],[-60.14113496,-33.69389695],[-60.14119462,-33.69344936],[-60.141242,-33.693094],[-60.15970008,-33.68996799],[-60.159765,-33.689957],[-60.16492163,-33.68450573],[-60.165278,-33.684129],[-60.167292,-33.68197065],[-60.16818,-33.681019],[-60.17513673,-33.67366345],[-60.17507223,-33.67340206],[-60.17224,-33.661924],[-60.1729882,-33.6617839],[-60.17313329,-33.66175673],[-60.18851372,-33.65887681],[-60.19186605,-33.65824911],[-60.200262,-33.656677],[-60.21286,-33.654369],[-60.223759,-33.652289],[-60.224487,-33.652103],[-60.235655,-33.650071],[-60.242539,-33.648841],[-60.242511,-33.649053],[-60.242315,-33.649418],[-60.241846,-33.650164],[-60.241741,-33.650809],[-60.242067,-33.652012],[-60.24215,-33.652891],[-60.242151,-33.653071],[-60.241723,-33.654424],[-60.241644,-33.654898],[-60.241599,-33.656515],[-60.24122,-33.657446],[-60.241088,-33.658505],[-60.240231,-33.660558],[-60.23983419,-33.66166391],[-60.239616,-33.662272],[-60.23943,-33.663287],[-60.239394,-33.664507],[-60.245149,-33.663462],[-60.254697,-33.661696],[-60.262589,-33.660294],[-60.26293,-33.660231],[-60.271219,-33.658705],[-60.279321,-33.657242],[-60.279684,-33.657149],[-60.28034721,-33.65703059],[-60.286747,-33.655888],[-60.288854,-33.655503],[-60.291007,-33.655108],[-60.293267,-33.654693],[-60.295582,-33.654277],[-60.30090277,-33.65329072],[-60.303453,-33.652818],[-60.306183,-33.65231],[-60.306619,-33.65222],[-60.30699148,-33.65215279],[-60.30930783,-33.65173482],[-60.31122132,-33.65138954],[-60.312244,-33.651205],[-60.31265896,-33.65114596],[-60.312989,-33.651099],[-60.313175,-33.651123],[-60.313129,-33.651054],[-60.31313951,-33.65081232],[-60.31314,-33.650812],[-60.31313963,-33.65080948],[-60.31314073,-33.65078415],[-60.313142,-33.650755],[-60.313102,-33.650553],[-60.31305425,-33.65025692],[-60.313042,-33.650181],[-60.312945,-33.650029],[-60.312768,-33.649874],[-60.31272961,-33.6498556],[-60.312576,-33.649782],[-60.312319,-33.649716],[-60.312194,-33.6497],[-60.31202184,-33.64972586],[-60.311941,-33.649738],[-60.311608,-33.649746],[-60.31148772,-33.64970698],[-60.311383,-33.649673],[-60.311227,-33.649602],[-60.310986,-33.649528],[-60.31067801,-33.64949497],[-60.310613,-33.649488],[-60.310419,-33.649403],[-60.310231,-33.649235],[-60.310105,-33.648997],[-60.30999,-33.648751],[-60.309862,-33.648587],[-60.30983246,-33.64854956],[-60.309776,-33.648478],[-60.309658,-33.648388],[-60.3095798,-33.64834743],[-60.309498,-33.648305],[-60.30948906,-33.64830077],[-60.309333,-33.648227],[-60.30915904,-33.64817835],[-60.309097,-33.648161],[-60.308943,-33.648069],[-60.308774,-33.647894],[-60.308754,-33.647753],[-60.30874818,-33.6476425],[-60.308745,-33.647582],[-60.30874124,-33.64757189],[-60.308678,-33.647402],[-60.308638,-33.647293],[-60.308652,-33.647124],[-60.30874,-33.647036],[-60.30877413,-33.64698139],[-60.308785,-33.646964],[-60.308793,-33.646893],[-60.308761,-33.64681],[-60.30874501,-33.64678487],[-60.308684,-33.646689],[-60.308553,-33.646641],[-60.308496,-33.646565],[-60.308453,-33.646482],[-60.308447,-33.646363],[-60.308435,-33.646247],[-60.308389,-33.646157],[-60.308278,-33.646091],[-60.308127,-33.646032],[-60.307947,-33.645966],[-60.307773,-33.645805],[-60.307664,-33.645624],[-60.307564,-33.645444],[-60.307475,-33.645256],[-60.30734,-33.64495],[-60.307236,-33.644802],[-60.307227,-33.644693],[-60.307204,-33.644593],[-60.307155,-33.644446],[-60.306998,-33.64433],[-60.306972,-33.644237],[-60.306958,-33.644147],[-60.306935,-33.644047],[-60.306864,-33.643985],[-60.306823,-33.643888],[-60.306477,-33.643568],[-60.30624,-33.643386],[-60.306077,-33.643196],[-60.305886,-33.64298],[-60.305809,-33.6428],[-60.305682,-33.642705],[-60.305639,-33.642634],[-60.305528,-33.642518],[-60.305371,-33.642452],[-60.305132,-33.642412],[-60.304867,-33.642384],[-60.304765,-33.642334],[-60.304676,-33.642254],[-60.304625,-33.642202],[-60.304587,-33.642109],[-60.304562,-33.642009],[-60.304541,-33.641857],[-60.304504,-33.641779],[-60.304433,-33.641691],[-60.304324,-33.641582],[-60.304209,-33.641492],[-60.304117,-33.64125],[-60.303994,-33.641127],[-60.303869,-33.640989],[-60.303637,-33.640805],[-60.30339312,-33.64059295],[-60.303231,-33.640452],[-60.303066,-33.640302],[-60.302875,-33.640091],[-60.302792,-33.639923],[-60.302697,-33.639773],[-60.302589,-33.639631],[-60.302453,-33.639496],[-60.302271,-33.63933],[-60.302171,-33.639207],[-60.302068,-33.639131],[-60.301991,-33.639072],[-60.301874,-33.639017],[-60.301809,-33.638934],[-60.301706,-33.638835],[-60.301612,-33.638666],[-60.301525,-33.638541],[-60.301368,-33.638327],[-60.301356,-33.638085],[-60.301301,-33.637973],[-60.301196,-33.637843],[-60.300934,-33.637722],[-60.300783,-33.637658],[-60.30054892,-33.63754526],[-60.300511,-33.637527],[-60.30042545,-33.63749938],[-60.300161,-33.637414],[-60.299916,-33.637329],[-60.299767,-33.637179],[-60.299466,-33.636666],[-60.299502,-33.63656417],[-60.299583,-33.636335],[-60.299403,-33.636032],[-60.299177,-33.635817],[-60.299041,-33.635644],[-60.29871087,-33.6354343],[-60.298649,-33.635395],[-60.298215,-33.635138],[-60.298102,-33.635018],[-60.29803564,-33.63484055],[-60.29801,-33.634772],[-60.29783772,-33.63460769],[-60.297837,-33.634607],[-60.297661,-33.634429],[-60.297382,-33.634125],[-60.297179,-33.633973],[-60.29708105,-33.63391246],[-60.29698,-33.63385],[-60.296755,-33.633767],[-60.29673292,-33.63376054],[-60.296591,-33.633719],[-60.296215,-33.633487],[-60.295959,-33.633385],[-60.29576,-33.633298],[-60.295535,-33.633241],[-60.295358,-33.63309],[-60.2952529,-33.63300342],[-60.295114,-33.632889],[-60.295017,-33.632763],[-60.29487149,-33.63256243],[-60.294869,-33.632559],[-60.294729,-33.63241],[-60.29467984,-33.6323784],[-60.294449,-33.63223],[-60.294239,-33.631979],[-60.29418594,-33.63192025],[-60.294043,-33.631762],[-60.293812,-33.631412],[-60.293667,-33.631289],[-60.293505,-33.631274],[-60.293339,-33.631208],[-60.293126,-33.631231],[-60.29297,-33.631196],[-60.29265188,-33.63118906],[-60.292649,-33.631189],[-60.292523,-33.631128],[-60.292378,-33.631023],[-60.292092,-33.630672],[-60.291723,-33.630406],[-60.291509,-33.630236],[-60.291161,-33.630009],[-60.290998,-33.629646],[-60.29097672,-33.62960302],[-60.29074,-33.629125],[-60.290426,-33.628928],[-60.29033714,-33.62891115],[-60.290194,-33.628884],[-60.2901385,-33.62879196],[-60.289992,-33.628549],[-60.289863,-33.628345],[-60.289635,-33.628012],[-60.289469,-33.627689],[-60.289342,-33.627498],[-60.28909715,-33.62729291],[-60.288991,-33.627204],[-60.288797,-33.62695],[-60.2887403,-33.62685669],[-60.288605,-33.626634],[-60.288564,-33.626411],[-60.288455,-33.626105],[-60.28831,-33.625944],[-60.28811,-33.625799],[-60.287802,-33.625595],[-60.28769568,-33.62553885],[-60.287465,-33.625417],[-60.287112,-33.625227],[-60.2870494,-33.62501682],[-60.287003,-33.624861],[-60.286836,-33.624675],[-60.286591,-33.624462],[-60.286379,-33.624317],[-60.286081,-33.624198],[-60.28583,-33.624133],[-60.285718,-33.624049],[-60.285502,-33.623993],[-60.285365,-33.623936],[-60.28529807,-33.62392825],[-60.285106,-33.623906],[-60.285015,-33.623873],[-60.284867,-33.62379],[-60.284632,-33.623542],[-60.28453016,-33.62341844],[-60.284421,-33.623286],[-60.284344,-33.623219],[-60.28426121,-33.6231524],[-60.284073,-33.623001],[-60.283862,-33.622807],[-60.283673,-33.622568],[-60.28343,-33.62219],[-60.283296,-33.622048],[-60.283153,-33.621936],[-60.282942,-33.621837],[-60.282616,-33.621639],[-60.282234,-33.621393],[-60.281495,-33.620901],[-60.281233,-33.620716],[-60.280919,-33.62046],[-60.28071,-33.620396],[-60.280263,-33.620395],[-60.279803,-33.620298],[-60.27979657,-33.62029436],[-60.279568,-33.620165],[-60.279207,-33.62021],[-60.27884226,-33.62030829],[-60.278565,-33.620383],[-60.277979,-33.620465],[-60.277533,-33.620477],[-60.27719543,-33.6204352],[-60.277113,-33.620425],[-60.276662,-33.620546],[-60.27645263,-33.62078838],[-60.27644,-33.620803],[-60.276228,-33.620951],[-60.276068,-33.621126],[-60.27577,-33.621293],[-60.275444,-33.621328],[-60.275188,-33.621354],[-60.274893,-33.621312],[-60.274669,-33.621234],[-60.274513,-33.621206],[-60.274427,-33.621163],[-60.274338,-33.621053],[-60.2742642,-33.62091628],[-60.274243,-33.620877],[-60.274112,-33.620746],[-60.273932,-33.620552],[-60.27379061,-33.62039896],[-60.27375,-33.620355],[-60.273641,-33.620205],[-60.273583,-33.620002],[-60.273556,-33.619819],[-60.27355564,-33.61981582],[-60.273536,-33.619643],[-60.273472,-33.61958443],[-60.27343,-33.619546],[-60.273271,-33.619527],[-60.273024,-33.619561],[-60.272848,-33.619547],[-60.272688,-33.619495],[-60.271892,-33.619337],[-60.271551,-33.619288],[-60.27134,-33.61926],[-60.27132799,-33.61926],[-60.271187,-33.61926],[-60.270988,-33.619273],[-60.27084901,-33.61930908],[-60.270753,-33.619334],[-60.270497,-33.619361],[-60.270298,-33.619311],[-60.270145,-33.619233],[-60.269911,-33.619191],[-60.269826,-33.619122],[-60.26978,-33.619037],[-60.269768,-33.618911],[-60.26976791,-33.61890686],[-60.269765,-33.61877],[-60.269722,-33.618666],[-60.269585,-33.618526],[-60.26950543,-33.6184759],[-60.269423,-33.618424],[-60.269216,-33.618328],[-60.268988,-33.61821],[-60.268703,-33.617984],[-60.26837,-33.617892],[-60.26830082,-33.61784857],[-60.267932,-33.617617],[-60.267642,-33.61748],[-60.26741525,-33.6173497],[-60.267374,-33.617326],[-60.267308,-33.617274],[-60.26717978,-33.61717374],[-60.26712,-33.617127],[-60.266868,-33.616924],[-60.26658357,-33.61673373],[-60.266578,-33.61673],[-60.26657653,-33.61672807],[-60.266466,-33.616583],[-60.266349,-33.616469],[-60.266133,-33.616372],[-60.266013,-33.616339],[-60.265821,-33.616286],[-60.265465,-33.616225],[-60.265132,-33.61608],[-60.264859,-33.615915],[-60.264674,-33.615806],[-60.264371,-33.615686],[-60.264015,-33.615468],[-60.263918,-33.615442],[-60.263622,-33.615417],[-60.263417,-33.615379],[-60.263321,-33.615382],[-60.263183,-33.615438],[-60.263015,-33.615524],[-60.262922,-33.615595],[-60.262771,-33.615705],[-60.262581,-33.615781],[-60.262476,-33.615832],[-60.26239333,-33.61588454],[-60.26224,-33.615982],[-60.262141,-33.61602],[-60.26212973,-33.61602184],[-60.261933,-33.616054],[-60.261789,-33.616057],[-60.261563,-33.615944],[-60.261138,-33.615818],[-60.26083,-33.615932],[-60.26082266,-33.61593447],[-60.260399,-33.616077],[-60.259956,-33.616186],[-60.259659,-33.61622],[-60.259415,-33.616416],[-60.259205,-33.616483],[-60.258974,-33.616558],[-60.258772,-33.616591],[-60.258615,-33.616672],[-60.258362,-33.616737],[-60.258183,-33.616692],[-60.2580447,-33.61661812],[-60.257949,-33.616567],[-60.25765698,-33.61658473],[-60.257287,-33.616485],[-60.257071,-33.616421],[-60.256702,-33.616274],[-60.256476,-33.616257],[-60.25628,-33.616205],[-60.256032,-33.616224],[-60.255651,-33.616284],[-60.255514,-33.616113],[-60.255377,-33.616116],[-60.255249,-33.616147],[-60.255099,-33.616183],[-60.254962,-33.616273],[-60.254795,-33.616383],[-60.25477,-33.616481],[-60.254745,-33.616573],[-60.254699,-33.616659],[-60.254591,-33.616721],[-60.254469,-33.616755],[-60.25435,-33.616769],[-60.254191,-33.616765],[-60.254065,-33.616727],[-60.253807,-33.616582],[-60.253668,-33.616532],[-60.253565,-33.616525],[-60.25342,-33.61654],[-60.253193,-33.616571],[-60.253037,-33.616588],[-60.252877,-33.616584],[-60.252724,-33.616556],[-60.252587,-33.616518],[-60.252479,-33.616516],[-60.252354,-33.616539],[-60.25219,-33.616662],[-60.251956,-33.616761],[-60.251775,-33.616759],[-60.251639,-33.616783],[-60.25142,-33.61686],[-60.251181,-33.616922],[-60.251068,-33.616906],[-60.25092,-33.61684],[-60.25081289,-33.61673098],[-60.250673,-33.61656],[-60.250474,-33.616313],[-60.250439,-33.616192],[-60.250413,-33.616071],[-60.250367,-33.615966],[-60.250025,-33.615886],[-60.249859,-33.615874],[-60.249513,-33.615914],[-60.249243,-33.615943],[-60.24893,-33.616012],[-60.248721,-33.616114],[-60.248501,-33.616151],[-60.248336,-33.616202],[-60.248077,-33.616267],[-60.247632,-33.616263],[-60.2474,-33.616245],[-60.247169,-33.61625],[-60.246837,-33.61632],[-60.246606,-33.616385],[-60.246281,-33.616372],[-60.24590277,-33.6163173],[-60.245873,-33.616313],[-60.245411,-33.616189],[-60.245212,-33.616033],[-60.244904,-33.615988],[-60.244656,-33.615901],[-60.244439,-33.615686],[-60.244245,-33.615392],[-60.243986,-33.61513],[-60.243549,-33.61451],[-60.243352,-33.613977],[-60.243203,-33.613816],[-60.24311725,-33.61374229],[-60.243025,-33.613663],[-60.242864,-33.61365],[-60.24275633,-33.61364761],[-60.242684,-33.613646],[-60.242577,-33.613625],[-60.242417,-33.613536],[-60.242323,-33.613425],[-60.242276,-33.613329],[-60.24225,-33.613266],[-60.242202,-33.613152],[-60.242216,-33.613022],[-60.24227,-33.612823],[-60.242465,-33.612683],[-60.242619,-33.612626],[-60.242702,-33.612523],[-60.242761,-33.612392],[-60.242769,-33.612222],[-60.242724,-33.612111],[-60.242661,-33.611965],[-60.242569,-33.611863],[-60.242367,-33.611626],[-60.242278,-33.611443],[-60.24226716,-33.61134841],[-60.24226,-33.611286],[-60.242223,-33.611203],[-60.242142,-33.611135],[-60.242079,-33.611074],[-60.24198,-33.611033],[-60.241839,-33.610972],[-60.24183275,-33.61096712],[-60.241697,-33.610861],[-60.241584,-33.610637],[-60.241573,-33.610235],[-60.241595,-33.609957],[-60.24179,-33.609816],[-60.241815,-33.609563],[-60.241824,-33.609199],[-60.24171,-33.608924],[-60.241439,-33.608698],[-60.241161,-33.608464],[-60.2409113,-33.60829664],[-60.240575,-33.608127],[-60.240364,-33.607748],[-60.240112,-33.607512],[-60.239874,-33.607402],[-60.239737,-33.607081],[-60.239661,-33.60682],[-60.239529,-33.606482],[-60.239449,-33.606171],[-60.23943,-33.605758],[-60.239393,-33.605534],[-60.23929,-33.605307],[-60.239146,-33.605075],[-60.238954,-33.604825],[-60.238872,-33.60467],[-60.238823,-33.60442],[-60.238826,-33.604181],[-60.238897,-33.604002],[-60.238901,-33.6038],[-60.238896,-33.603587],[-60.238951,-33.603409],[-60.238832,-33.603237],[-60.238554,-33.603114],[-60.238332,-33.603174],[-60.238089,-33.603098],[-60.237752,-33.602917],[-60.23748,-33.602813],[-60.237243,-33.602772],[-60.237246,-33.602579],[-60.236987,-33.602206],[-60.23676599,-33.6019875],[-60.236723,-33.601945],[-60.23670107,-33.60193157],[-60.236166,-33.601604],[-60.235943,-33.60141],[-60.235816,-33.601198],[-60.235704,-33.600996],[-60.235407,-33.600633],[-60.235308,-33.600091],[-60.235231,-33.599838],[-60.235088,-33.599569],[-60.235034,-33.599427],[-60.234987,-33.598915],[-60.234841,-33.598468],[-60.234841,-33.598116],[-60.234734,-33.597724],[-60.234657,-33.597595],[-60.2345786,-33.59746455],[-60.234538,-33.597397],[-60.234368,-33.597214],[-60.234092,-33.597042],[-60.23401,-33.596876],[-60.233856,-33.596637],[-60.2338518,-33.59662986],[-60.233753,-33.596462],[-60.233698,-33.596251],[-60.233777,-33.596008],[-60.23379737,-33.59585719],[-60.233819,-33.595697],[-60.233796,-33.595486],[-60.23376399,-33.59539358],[-60.233734,-33.595307],[-60.233735,-33.595139],[-60.233769,-33.594804],[-60.23383693,-33.59461128],[-60.23391,-33.594404],[-60.2339,-33.59415],[-60.233806,-33.594008],[-60.23364495,-33.59389304],[-60.2336449,-33.59389301],[-60.23364486,-33.59389297],[-60.233417,-33.593747],[-60.233354,-33.593636],[-60.233264,-33.593438],[-60.23326016,-33.59342285],[-60.233178,-33.593099],[-60.233096,-33.592823],[-60.23309168,-33.59281465],[-60.233007,-33.592651],[-60.232886,-33.592483],[-60.23284098,-33.59228526],[-60.232835,-33.592259],[-60.232692,-33.592033],[-60.232456,-33.591787],[-60.232321,-33.591561],[-60.232143,-33.591403],[-60.23203,-33.591331],[-60.232002,-33.591278],[-60.23198804,-33.59125068],[-60.231909,-33.591096],[-60.23191756,-33.59103925],[-60.231979,-33.590632],[-60.23184943,-33.59025592],[-60.231825,-33.590185],[-60.23184612,-33.59004358],[-60.231924,-33.589522],[-60.231965,-33.589232],[-60.231917,-33.588996],[-60.231885,-33.588884],[-60.231767,-33.588722],[-60.231674,-33.588571],[-60.231514,-33.588363],[-60.231372,-33.588162],[-60.231194,-33.587987],[-60.231043,-33.587797],[-60.23085,-33.587682],[-60.23073693,-33.5875342],[-60.230697,-33.587482],[-60.230558,-33.58725],[-60.23054,-33.587131],[-60.230562,-33.587],[-60.230678,-33.586948],[-60.230789,-33.586854],[-60.230789,-33.586701],[-60.23074627,-33.58660024],[-60.230694,-33.586477],[-60.230605,-33.586309],[-60.230426,-33.586126],[-60.23018721,-33.58607333],[-60.230154,-33.586066],[-60.229837,-33.585887],[-60.229533,-33.58569],[-60.22952562,-33.58568528],[-60.229286,-33.585532],[-60.229039,-33.585466],[-60.228803,-33.585357],[-60.228593,-33.58535],[-60.228336,-33.585329],[-60.22827792,-33.58528193],[-60.22822,-33.585235],[-60.228149,-33.585094],[-60.228112,-33.58503],[-60.22811384,-33.58501565],[-60.228131,-33.584882],[-60.22807574,-33.58460964],[-60.228006,-33.584465],[-60.227867,-33.584293],[-60.227702,-33.584118],[-60.227567,-33.583887],[-60.227388,-33.583659],[-60.227164,-33.583544],[-60.227057,-33.583526],[-60.226931,-33.583506],[-60.226739,-33.583472],[-60.226595,-33.583387],[-60.226376,-33.583126],[-60.226228,-33.582984],[-60.226014,-33.582809],[-60.225754,-33.582514],[-60.225524,-33.582266],[-60.225233,-33.58202],[-60.224858,-33.581871],[-60.224398,-33.581711],[-60.22407,-33.58166],[-60.223775,-33.581552],[-60.223208,-33.581359],[-60.222919,-33.581311],[-60.22271087,-33.58127282],[-60.22268662,-33.58126837],[-60.222472,-33.581229],[-60.22228734,-33.58126206],[-60.221986,-33.581316],[-60.221781,-33.581365],[-60.22166828,-33.58140947],[-60.221563,-33.581451],[-60.221447,-33.581624],[-60.221376,-33.581777],[-60.22135291,-33.58181402],[-60.221318,-33.58187],[-60.2212401,-33.58190859],[-60.221211,-33.581923],[-60.221046,-33.581927],[-60.220805,-33.58186],[-60.220343,-33.581737],[-60.219941,-33.581626],[-60.21973946,-33.58156787],[-60.21957,-33.581519],[-60.219293,-33.581426],[-60.219029,-33.581295],[-60.2188566,-33.58107933],[-60.218774,-33.580976],[-60.218588,-33.580731],[-60.218333,-33.580448],[-60.218158,-33.5801],[-60.218073,-33.579944],[-60.217898,-33.579712],[-60.217664,-33.579475],[-60.217481,-33.579364],[-60.21725098,-33.57929491],[-60.21694642,-33.5792812],[-60.21685459,-33.57928448],[-60.2167,-33.57929],[-60.216311,-33.57928],[-60.21621895,-33.57925415],[-60.216019,-33.579198],[-60.215715,-33.579053],[-60.21550712,-33.57895259],[-60.215479,-33.578939],[-60.215322,-33.578741],[-60.215188,-33.578581],[-60.215164,-33.57813],[-60.215101,-33.577846],[-60.215068,-33.577391],[-60.215045,-33.577152],[-60.214991,-33.57679],[-60.21504338,-33.57647389],[-60.215049,-33.57644],[-60.215129,-33.576156],[-60.215285,-33.575931],[-60.215481,-33.57571],[-60.21554234,-33.57555367],[-60.215636,-33.575315],[-60.215793,-33.575117],[-60.21589752,-33.57498467],[-60.215902,-33.574979],[-60.21590247,-33.5749555],[-60.215907,-33.574728],[-60.215862,-33.574564],[-60.215777,-33.574422],[-60.215598,-33.574047],[-60.215454,-33.573908],[-60.215404,-33.573676],[-60.21538236,-33.57356878],[-60.215337,-33.573344],[-60.21528211,-33.57325447],[-60.215177,-33.573083],[-60.215164,-33.572711],[-60.21516565,-33.57266303],[-60.215173,-33.57245],[-60.215046,-33.57211],[-60.215021,-33.571895],[-60.214864,-33.571679],[-60.214602,-33.571375],[-60.21448,-33.571157],[-60.21437898,-33.57109949],[-60.21422,-33.571009],[-60.214048,-33.570717],[-60.213779,-33.570423],[-60.213527,-33.570089],[-60.213179,-33.569861],[-60.212855,-33.569654],[-60.21281791,-33.56961458],[-60.212632,-33.569417],[-60.21254806,-33.56929869],[-60.212505,-33.569238],[-60.212358,-33.568957],[-60.2122057,-33.56885609],[-60.212032,-33.568741],[-60.211768,-33.568578],[-60.211581,-33.568507],[-60.211384,-33.5685],[-60.210996,-33.568586],[-60.2108,-33.568575],[-60.210661,-33.568531],[-60.210532,-33.568412],[-60.21052424,-33.56834235],[-60.2105074,-33.56819117],[-60.210488,-33.568017],[-60.210541,-33.56783],[-60.210679,-33.567471],[-60.210822,-33.56726],[-60.211127,-33.567184],[-60.211512,-33.567006],[-60.21168735,-33.56679558],[-60.211752,-33.566718],[-60.211809,-33.566468],[-60.211746,-33.566274],[-60.211621,-33.566166],[-60.21160013,-33.56615014],[-60.211371,-33.565976],[-60.211248,-33.565813],[-60.211188,-33.565693],[-60.21117522,-33.56564519],[-60.211161,-33.565592],[-60.21112429,-33.56554597],[-60.211098,-33.565513],[-60.21079,-33.565271],[-60.210553,-33.565074],[-60.210405,-33.564891],[-60.210337,-33.564712],[-60.21031,-33.564532],[-60.2103144,-33.56448484],[-60.210328,-33.564339],[-60.210455,-33.563772],[-60.21045393,-33.563685],[-60.210451,-33.563446],[-60.210419,-33.563304],[-60.210316,-33.563133],[-60.210164,-33.562942],[-60.209922,-33.562723],[-60.209706,-33.562501],[-60.209586,-33.562213],[-60.209394,-33.561918],[-60.2093052,-33.56175786],[-60.20929304,-33.56173593],[-60.209155,-33.561487],[-60.209181,-33.561278],[-60.209181,-33.561156],[-60.209202,-33.560797],[-60.209153,-33.560693],[-60.209054,-33.560491],[-60.208938,-33.560339],[-60.208817,-33.560238],[-60.208611,-33.560029],[-60.208495,-33.559861],[-60.208445,-33.559712],[-60.208367,-33.55928],[-60.208291,-33.559135],[-60.208148,-33.55903],[-60.208063,-33.558997],[-60.207951,-33.558777],[-60.20773,-33.558719],[-60.207348,-33.558679],[-60.207141,-33.55866],[-60.206946,-33.558633],[-60.206694,-33.558535],[-60.206519,-33.558361],[-60.20648111,-33.55816119],[-60.206442,-33.557955],[-60.206205,-33.55769],[-60.205865,-33.557399],[-60.205664,-33.557205],[-60.205457,-33.556976],[-60.205283,-33.556842],[-60.20460022,-33.55642334],[-60.204554,-33.556395],[-60.204157,-33.556298],[-60.203893,-33.556205],[-60.203701,-33.55606],[-60.203602,-33.55596907],[-60.203419,-33.555801],[-60.203387,-33.555614],[-60.203435,-33.555386],[-60.203567,-33.555243],[-60.203951,-33.555071],[-60.20445,-33.554884],[-60.204771,-33.554723],[-60.204976,-33.554483],[-60.20507748,-33.55430879],[-60.205276,-33.553968],[-60.20557472,-33.55353752],[-60.205607,-33.553491],[-60.20558818,-33.55335287],[-60.20553778,-33.55298283],[-60.205525,-33.552889],[-60.205376,-33.55194],[-60.205137,-33.551141],[-60.205051,-33.550746],[-60.204966,-33.550518],[-60.204809,-33.550294],[-60.20465657,-33.55021623],[-60.204613,-33.550194],[-60.20443564,-33.5501255],[-60.204323,-33.550082],[-60.204135,-33.549945],[-60.203949,-33.54977],[-60.20361126,-33.54970205],[-60.203512,-33.54957],[-60.20347897,-33.54937455],[-60.203476,-33.549357],[-60.203483,-33.549107],[-60.20348446,-33.54910327],[-60.203559,-33.548913],[-60.203617,-33.548707],[-60.203402,-33.548482],[-60.20329054,-33.54843094],[-60.20325178,-33.54841318],[-60.203223,-33.5484],[-60.203009,-33.548359],[-60.202857,-33.548337],[-60.202629,-33.548301],[-60.202477,-33.548234],[-60.202365,-33.54813],[-60.20234835,-33.54809835],[-60.202294,-33.547995],[-60.202293,-33.54779],[-60.202315,-33.547588],[-60.20240733,-33.54738776],[-60.202475,-33.547241],[-60.202497,-33.546957],[-60.202487,-33.546624],[-60.20248032,-33.54657348],[-60.202419,-33.54611],[-60.202427,-33.545815],[-60.202485,-33.545654],[-60.20254712,-33.54560565],[-60.202679,-33.545503],[-60.202928,-33.54522],[-60.20297559,-33.54517335],[-60.203387,-33.54477],[-60.20343751,-33.54459951],[-60.203443,-33.544581],[-60.203543,-33.544397],[-60.203537,-33.544088],[-60.2033,-33.543797],[-60.203081,-33.543659],[-60.202755,-33.543522],[-60.20238,-33.543365],[-60.202142,-33.543229],[-60.201981,-33.543114],[-60.20181156,-33.54307601],[-60.2017,-33.543051],[-60.201606,-33.54292],[-60.20146635,-33.54263549],[-60.201445,-33.542592],[-60.201259,-33.542172],[-60.201151,-33.541693],[-60.201026,-33.541491],[-60.200953,-33.541123],[-60.20088099,-33.54082535],[-60.200863,-33.540751],[-60.200722,-33.540373],[-60.20071895,-33.54030932],[-60.200708,-33.540081],[-60.200722,-33.539776],[-60.200561,-33.53953],[-60.200434,-33.539274],[-60.200271,-33.539],[-60.200058,-33.538773],[-60.19998853,-33.53868616],[-60.199922,-33.538603],[-60.19990332,-33.5384987],[-60.199898,-33.538469],[-60.199828,-33.538138],[-60.19982072,-33.53796327],[-60.199819,-33.537922],[-60.199904,-33.537707],[-60.200037,-33.537486],[-60.200193,-33.537206],[-60.20019913,-33.53717731],[-60.200237,-33.537],[-60.200246,-33.536776],[-60.200192,-33.536575],[-60.200129,-33.536373],[-60.199944,-33.536039],[-60.199661,-33.535524],[-60.199301,-33.534929],[-60.199045,-33.534505],[-60.198924,-33.534356],[-60.198714,-33.534121],[-60.198406,-33.533927],[-60.198111,-33.533845],[-60.197736,-33.533823],[-60.197433,-33.533813],[-60.197232,-33.533746],[-60.19705714,-33.53361971],[-60.196998,-33.533577],[-60.19700862,-33.53351277],[-60.197039,-33.533329],[-60.196886,-33.53316],[-60.196733,-33.532993],[-60.196369,-33.532687],[-60.19626979,-33.53256124],[-60.196171,-33.532436],[-60.19615262,-33.53236948],[-60.196087,-33.532132],[-60.196097,-33.531785],[-60.19599178,-33.53157381],[-60.19596436,-33.53151877],[-60.195958,-33.531506],[-60.195734,-33.531269],[-60.19571502,-33.53125761],[-60.195439,-33.531092],[-60.195038,-33.530908],[-60.19476887,-33.53066934],[-60.194667,-33.530579],[-60.194069,-33.530277],[-60.193834,-33.530168],[-60.19332145,-33.53010902],[-60.19332101,-33.53010895],[-60.19310473,-33.53010683],[-60.193022,-33.530106],[-60.1929251,-33.53010795],[-60.192625,-33.530114],[-60.192393,-33.53007],[-60.19225444,-33.53000973],[-60.19217,-33.529973],[-60.191982,-33.529809],[-60.191831,-33.529725],[-60.191755,-33.529495],[-60.19163614,-33.52907704],[-60.191633,-33.529066],[-60.19163375,-33.52906054],[-60.191684,-33.528695],[-60.191788,-33.528164],[-60.191805,-33.52778],[-60.191724,-33.527444],[-60.191594,-33.527227],[-60.191384,-33.526992],[-60.191142,-33.526862],[-60.1909,-33.526701],[-60.190712,-33.526619],[-60.190471,-33.526605],[-60.19039032,-33.52662873],[-60.190369,-33.526635],[-60.190182,-33.526725],[-60.19004942,-33.52673672],[-60.189967,-33.526744],[-60.189896,-33.526684],[-60.189722,-33.526527],[-60.189583,-33.526457],[-60.189295,-33.526402],[-60.18921278,-33.52639858],[-60.18903455,-33.52639118],[-60.188934,-33.526387],[-60.188836,-33.526443],[-60.188834,-33.52644587],[-60.188729,-33.526597],[-60.18864,-33.526817],[-60.188489,-33.527015],[-60.188311,-33.52717],[-60.188029,-33.52718],[-60.18802496,-33.52717892],[-60.187807,-33.527121],[-60.187526,-33.527061],[-60.187328,-33.526953],[-60.187176,-33.526832],[-60.187048,-33.526671],[-60.1869151,-33.52655267],[-60.186893,-33.526533],[-60.18673,-33.526347],[-60.186748,-33.5261],[-60.186811,-33.525817],[-60.18681883,-33.52564465],[-60.186823,-33.525553],[-60.18656304,-33.52531685],[-60.186561,-33.525315],[-60.18655597,-33.52530589],[-60.186454,-33.525121],[-60.186325,-33.524853],[-60.186095,-33.524633],[-60.185818,-33.524259],[-60.185724,-33.524088],[-60.18567119,-33.52398238],[-60.185641,-33.523922],[-60.185617,-33.523706],[-60.18565227,-33.52362502],[-60.185715,-33.523481],[-60.185766,-33.523266],[-60.185855,-33.523105],[-60.18586956,-33.52302605],[-60.185881,-33.522964],[-60.18607614,-33.52289583],[-60.18611,-33.522884],[-60.186375,-33.522727],[-60.186534,-33.522426],[-60.186477,-33.522197],[-60.18619,-33.521957],[-60.185935,-33.521732],[-60.18581746,-33.52161446],[-60.185774,-33.521571],[-60.18564215,-33.52136984],[-60.185618,-33.521333],[-60.18554586,-33.52127355],[-60.18537529,-33.52113299],[-60.185294,-33.521066],[-60.18523524,-33.52105421],[-60.184985,-33.521004],[-60.184633,-33.520984],[-60.184329,-33.520942],[-60.184047,-33.520943],[-60.183841,-33.520812],[-60.183803,-33.52077],[-60.183621,-33.520632],[-60.183395,-33.520437],[-60.183309,-33.520256],[-60.18331673,-33.5202116],[-60.183348,-33.520032],[-60.183472,-33.519807],[-60.183715,-33.519647],[-60.184183,-33.519624],[-60.18417063,-33.51945851],[-60.184159,-33.519303],[-60.18415872,-33.51930218],[-60.184091,-33.519099],[-60.183918,-33.518997],[-60.1839173,-33.51899649],[-60.183664,-33.518813],[-60.1833,-33.5187],[-60.183025,-33.51866],[-60.182754,-33.518606],[-60.182492,-33.518572],[-60.182107,-33.518596],[-60.181849,-33.518597],[-60.181622,-33.518658],[-60.181335,-33.518625],[-60.18132816,-33.51861403],[-60.181262,-33.518508],[-60.181157,-33.518386],[-60.181,-33.518226],[-60.18099,-33.518019],[-60.180941,-33.517831],[-60.180862,-33.517564],[-60.180822,-33.517333],[-60.180723,-33.51711],[-60.18069683,-33.51707122],[-60.18053,-33.516824],[-60.180454,-33.516652],[-60.180375,-33.516437],[-60.180237,-33.516194],[-60.18021323,-33.51611543],[-60.180165,-33.515956],[-60.180054,-33.515831],[-60.179995,-33.515715],[-60.179892,-33.515654],[-60.17983,-33.515503],[-60.179851,-33.515301],[-60.179846,-33.515118],[-60.17993799,-33.51498286],[-60.179959,-33.514952],[-60.180097,-33.51476],[-60.180359,-33.514799],[-60.18044234,-33.51478828],[-60.180709,-33.514754],[-60.180751,-33.514426],[-60.180732,-33.514243],[-60.180647,-33.514079],[-60.1805,-33.513866],[-60.18044,-33.513708],[-60.18039,-33.513461],[-60.180327,-33.513301],[-60.180251,-33.513185],[-60.18013,-33.513051],[-60.180014,-33.512991],[-60.179903,-33.512988],[-60.17988551,-33.51299007],[-60.179649,-33.513018],[-60.179332,-33.513045],[-60.17914,-33.513112],[-60.178837,-33.513232],[-60.178632,-33.513504],[-60.178501,-33.513617],[-60.178212,-33.513611],[-60.178042,-33.513591],[-60.177796,-33.513386],[-60.177425,-33.513065],[-60.177202,-33.51286],[-60.177117,-33.512748],[-60.17712008,-33.51270263],[-60.177133,-33.512512],[-60.176994,-33.512262],[-60.176842,-33.51212],[-60.17667917,-33.51201996],[-60.176619,-33.511983],[-60.176396,-33.511878],[-60.176124,-33.511819],[-60.175915,-33.511782],[-60.175634,-33.511753],[-60.175456,-33.511775],[-60.175143,-33.511833],[-60.174862,-33.511921],[-60.174646,-33.512035],[-60.174466,-33.512114],[-60.174201,-33.512094],[-60.173852,-33.51187],[-60.173546,-33.511771],[-60.173296,-33.511689],[-60.172858,-33.511586],[-60.17261992,-33.51144155],[-60.172387,-33.511256],[-60.172126,-33.510936],[-60.17206956,-33.51074985],[-60.172002,-33.510527],[-60.171951,-33.51013],[-60.171972,-33.509755],[-60.172001,-33.509491],[-60.172047,-33.509297],[-60.172313,-33.509103],[-60.172623,-33.508735],[-60.172855,-33.508384],[-60.17284109,-33.50836726],[-60.172614,-33.508094],[-60.17260647,-33.50808334],[-60.172426,-33.507828],[-60.172237,-33.507652],[-60.171972,-33.507508],[-60.1718129,-33.5072914],[-60.171806,-33.507282],[-60.17168311,-33.50713593],[-60.171594,-33.50703],[-60.17150331,-33.50674871],[-60.171476,-33.506664],[-60.17144734,-33.50661222],[-60.171295,-33.506337],[-60.170997,-33.506158],[-60.170765,-33.505872],[-60.170386,-33.505559],[-60.170051,-33.5053],[-60.169793,-33.504992],[-60.16975472,-33.5049395],[-60.169626,-33.504763],[-60.1695935,-33.50472902],[-60.169385,-33.504511],[-60.169088,-33.504096],[-60.1689992,-33.50377846],[-60.168989,-33.503742],[-60.168908,-33.503378],[-60.168706,-33.502834],[-60.168358,-33.502187],[-60.168061,-33.501723],[-60.1679288,-33.50154611],[-60.16778405,-33.50135241],[-60.167712,-33.501256],[-60.167349,-33.500888],[-60.16732403,-33.5008779],[-60.166716,-33.500632],[-60.166284,-33.500548],[-60.16621363,-33.50044185],[-60.166096,-33.5002644],[-60.166048,-33.500192],[-60.16603725,-33.50003082],[-60.16603,-33.499922],[-60.1659936,-33.49988238],[-60.165815,-33.499688],[-60.165609,-33.499347],[-60.165603,-33.498984],[-60.165652,-33.498674],[-60.165593,-33.498235],[-60.165649,-33.497933],[-60.165693,-33.497726],[-60.165838,-33.497476],[-60.16583842,-33.49747468],[-60.16594,-33.497156],[-60.166072,-33.49688],[-60.166173,-33.496627],[-60.166411,-33.496286],[-60.166516,-33.495981],[-60.166638,-33.495715],[-60.166873,-33.495567],[-60.167136,-33.495156],[-60.167124,-33.494885],[-60.16703955,-33.49470708],[-60.166993,-33.494609],[-60.166748,-33.49438],[-60.16662714,-33.49425257],[-60.166296,-33.494085],[-60.166006,-33.494026],[-60.165805,-33.493785],[-60.165646,-33.493642],[-60.16552,-33.493509],[-60.165431,-33.493259],[-60.165395,-33.492905],[-60.165434,-33.492602],[-60.165493,-33.492376],[-60.16561054,-33.49224289],[-60.165742,-33.492094],[-60.165888,-33.491832],[-60.165892,-33.491629],[-60.16571987,-33.4915117],[-60.165644,-33.49146],[-60.165461,-33.491342],[-60.165165,-33.491247],[-60.165079,-33.491151],[-60.164959,-33.491014],[-60.164825,-33.49086],[-60.164728,-33.490685],[-60.164717,-33.49045],[-60.164785,-33.490075],[-60.16481374,-33.48990588],[-60.16482769,-33.48982379],[-60.164863,-33.489616],[-60.164841,-33.489321],[-60.16465,-33.489122],[-60.164643,-33.488995],[-60.164637,-33.488894],[-60.164511,-33.488749],[-60.164566,-33.488506],[-60.16461382,-33.48834037],[-60.164635,-33.488267],[-60.164829,-33.48808],[-60.164955,-33.487912],[-60.164973,-33.487695],[-60.1648984,-33.48764806],[-60.164768,-33.487566],[-60.164453,-33.487435],[-60.164081,-33.487446],[-60.163818,-33.487423],[-60.163657,-33.487322],[-60.163498,-33.487192],[-60.163264,-33.486966],[-60.163157,-33.486835],[-60.163196,-33.486639],[-60.163108,-33.48638],[-60.163121,-33.486151],[-60.162974,-33.485946],[-60.162927,-33.485744],[-60.162772,-33.485503],[-60.162689,-33.485231],[-60.162354,-33.48494],[-60.162159,-33.484689],[-60.162107,-33.484438],[-60.162164,-33.484153],[-60.16226927,-33.48391104],[-60.162288,-33.483868],[-60.162463,-33.483616],[-60.162664,-33.48324],[-60.1625176,-33.48302085],[-60.162499,-33.482993],[-60.162253,-33.482886],[-60.162086,-33.482783],[-60.16182,-33.482619],[-60.161632,-33.482448],[-60.161478,-33.482234],[-60.161296,-33.48201],[-60.161334,-33.481782],[-60.161212,-33.481515],[-60.161298,-33.481268],[-60.161414,-33.480919],[-60.16146522,-33.4808392],[-60.161638,-33.48057],[-60.16155681,-33.4804498],[-60.161459,-33.480305],[-60.160979,-33.479984],[-60.160683,-33.479572],[-60.160533,-33.47926],[-60.160381,-33.478968],[-60.160214,-33.47861],[-60.160175,-33.47821],[-60.160241,-33.477837],[-60.16037797,-33.47760696],[-60.16045,-33.477486],[-60.1604847,-33.47712262],[-60.160486,-33.477109],[-60.160488,-33.476796],[-60.16051,-33.476508],[-60.16044,-33.476246],[-60.160369,-33.475797],[-60.160305,-33.475486],[-60.160206,-33.475183],[-60.160032,-33.474839],[-60.159987,-33.474537],[-60.159957,-33.474206],[-60.159961,-33.473895],[-60.160033,-33.473753],[-60.16009602,-33.47369377],[-60.16020477,-33.47359155],[-60.160487,-33.473508],[-60.160872,-33.473519],[-60.161162,-33.473512],[-60.161592,-33.473437],[-60.161873,-33.473392],[-60.162322,-33.473324],[-60.16277,-33.473145],[-60.163088,-33.472973],[-60.163222,-33.472633],[-60.163191,-33.472332],[-60.16314332,-33.47229804],[-60.162979,-33.472181],[-60.162936,-33.471904],[-60.163144,-33.47173],[-60.16325049,-33.47167449],[-60.163403,-33.471595],[-60.163876,-33.471627],[-60.1643,-33.471619],[-60.164695,-33.471602],[-60.165144,-33.471522],[-60.165405,-33.471534],[-60.165853,-33.471434],[-60.166209,-33.471428],[-60.166649,-33.471444],[-60.166973,-33.471469],[-60.167386,-33.471587],[-60.167859,-33.471883],[-60.168178,-33.471915],[-60.168551,-33.471989],[-60.168962,-33.471957],[-60.169461,-33.471692],[-60.169783,-33.471532],[-60.17032,-33.471329],[-60.17085,-33.471187],[-60.171274,-33.471065],[-60.171564,-33.470923],[-60.171797,-33.470767],[-60.172228,-33.470578],[-60.172516,-33.470488],[-60.17282,-33.470279],[-60.172957,-33.470092],[-60.173419,-33.469723],[-60.173419,-33.469365],[-60.173373,-33.469053],[-60.173422,-33.468791],[-60.173403,-33.468522],[-60.17339848,-33.46851759],[-60.173194,-33.468318],[-60.173114,-33.468055],[-60.173187,-33.46785],[-60.17331547,-33.46781401],[-60.173444,-33.467778],[-60.173719,-33.467755],[-60.173981,-33.467732],[-60.174249,-33.467782],[-60.174618,-33.467741],[-60.17487,-33.467845],[-60.175162,-33.467704],[-60.175284,-33.467357],[-60.175362,-33.467227],[-60.175424,-33.467051],[-60.175357,-33.466869],[-60.17534944,-33.46686129],[-60.175209,-33.466718],[-60.175109,-33.466557],[-60.175083,-33.466477],[-60.175101,-33.466393],[-60.175136,-33.46629],[-60.175258,-33.46617],[-60.1752855,-33.46615862],[-60.17549,-33.466074],[-60.1757,-33.465937],[-60.175754,-33.465924],[-60.175923,-33.465757],[-60.1761,-33.465499],[-60.17596801,-33.46523283],[-60.175919,-33.465134],[-60.175758,-33.464904],[-60.175513,-33.464649],[-60.175144,-33.464509],[-60.175062,-33.464332],[-60.17511,-33.464161],[-60.17514962,-33.46392232],[-60.175151,-33.463914],[-60.175304,-33.463685],[-60.175517,-33.463501],[-60.175719,-33.463355],[-60.175936,-33.463252],[-60.176016,-33.463141],[-60.176135,-33.463105],[-60.176254,-33.46298],[-60.176328,-33.462828],[-60.176534,-33.462592],[-60.17663,-33.462473],[-60.176612,-33.462338],[-60.176581,-33.462213],[-60.17658612,-33.46217397],[-60.176594,-33.462114],[-60.176545,-33.461987],[-60.176412,-33.461829],[-60.176223,-33.461747],[-60.176049,-33.461693],[-60.175813,-33.461673],[-60.175567,-33.461617],[-60.175496,-33.461513],[-60.175384,-33.461357],[-60.175288,-33.461159],[-60.175297,-33.460937],[-60.17549838,-33.46071325],[-60.175531,-33.460677],[-60.175824,-33.460545],[-60.176087,-33.460395],[-60.176374,-33.460335],[-60.176712,-33.460216],[-60.176936,-33.460038],[-60.177498,-33.459699],[-60.177734,-33.45943],[-60.178167,-33.459321],[-60.178601,-33.459243],[-60.178955,-33.459211],[-60.179527,-33.459259],[-60.179942,-33.45927],[-60.18036,-33.459455],[-60.180793,-33.459539],[-60.181178,-33.459449],[-60.181507,-33.459366],[-60.181804,-33.459358],[-60.182207,-33.459423],[-60.182647,-33.459478],[-60.183093,-33.459506],[-60.183698,-33.459424],[-60.184177,-33.459539],[-60.184633,-33.459642],[-60.184931,-33.459723],[-60.185199,-33.459757],[-60.1856,-33.459895],[-60.18601,-33.459749],[-60.186309,-33.459654],[-60.186567,-33.459433],[-60.186759,-33.459313],[-60.186901,-33.459224],[-60.187199,-33.458888],[-60.187356,-33.458671],[-60.187528,-33.458375],[-60.187544,-33.45807],[-60.18750528,-33.45799877],[-60.187407,-33.457818],[-60.187152,-33.457675],[-60.187027,-33.457454],[-60.186983,-33.457193],[-60.18710744,-33.45695656],[-60.187133,-33.456908],[-60.187147,-33.456589],[-60.187363,-33.456212],[-60.187611,-33.455975],[-60.187686,-33.455938],[-60.187852,-33.455854],[-60.188048,-33.455965],[-60.188307,-33.456145],[-60.188487,-33.456141],[-60.1886,-33.455949],[-60.188822,-33.455671],[-60.189049,-33.455378],[-60.189201,-33.455183],[-60.18935,-33.455025],[-60.189467,-33.454914],[-60.18962,-33.4548],[-60.18984532,-33.45464954],[-60.189933,-33.454591],[-60.190098,-33.454498],[-60.190289,-33.454358],[-60.190402,-33.45425],[-60.190472,-33.454163],[-60.190748,-33.453911],[-60.191035,-33.453586],[-60.191196,-33.453459],[-60.191563,-33.453032],[-60.191683,-33.45287],[-60.19177,-33.452733],[-60.191971,-33.452512],[-60.19206636,-33.45240233],[-60.192231,-33.452213],[-60.192401,-33.451935],[-60.192522,-33.451605],[-60.192595,-33.45127],[-60.192869,-33.451084],[-60.193113,-33.450922],[-60.19324889,-33.45076731],[-60.193523,-33.450649],[-60.193732,-33.450409],[-60.19376714,-33.45007149],[-60.193785,-33.4499],[-60.193685,-33.449428],[-60.193509,-33.449104],[-60.193245,-33.448873],[-60.192839,-33.448854],[-60.192375,-33.448757],[-60.192243,-33.448609],[-60.192172,-33.448425],[-60.192202,-33.448214],[-60.19231577,-33.44808294],[-60.192373,-33.448017],[-60.192564,-33.447824],[-60.192823,-33.4476],[-60.192943,-33.447292],[-60.19296894,-33.44710042],[-60.192995,-33.446908],[-60.192988,-33.446565],[-60.192817,-33.44631],[-60.19261,-33.446112],[-60.192533,-33.445896],[-60.192539,-33.445698],[-60.19270321,-33.44555661],[-60.192834,-33.445444],[-60.193279,-33.445407],[-60.193655,-33.445421],[-60.194003,-33.445295],[-60.194384,-33.445069],[-60.194469,-33.444784],[-60.19438464,-33.44461089],[-60.194354,-33.444548],[-60.194187,-33.444453],[-60.193912,-33.444398],[-60.193503,-33.444343],[-60.193178,-33.444251],[-60.192917,-33.444041],[-60.192831,-33.443744],[-60.192693,-33.443392],[-60.192739,-33.443007],[-60.192528,-33.442642],[-60.192576,-33.442299],[-60.192693,-33.442041],[-60.1927328,-33.4420101],[-60.193082,-33.441739],[-60.193186,-33.441559],[-60.193414,-33.441352],[-60.193721,-33.441188],[-60.194159,-33.441032],[-60.1942427,-33.44059018],[-60.194256,-33.44052],[-60.194156,-33.440126],[-60.193868,-33.43978],[-60.193622,-33.439471],[-60.193516,-33.439041],[-60.193507,-33.438598],[-60.19326287,-33.43804823],[-60.192967,-33.437525],[-60.192442,-33.436748],[-60.192147,-33.436251],[-60.191637,-33.435713],[-60.191034,-33.435179],[-60.19062,-33.435084],[-60.190176,-33.435068],[-60.189746,-33.435072],[-60.189438,-33.435281],[-60.189,-33.43531],[-60.188046,-33.435492],[-60.187851,-33.435414],[-60.187679,-33.435226],[-60.187479,-33.435008],[-60.187275,-33.434761],[-60.187265,-33.43452],[-60.187152,-33.434326],[-60.187049,-33.434119],[-60.186948,-33.433737],[-60.186838,-33.433459],[-60.186786,-33.433193],[-60.186969,-33.432878],[-60.186879,-33.432649],[-60.186938,-33.432334],[-60.18696026,-33.43218665],[-60.186996,-33.43195],[-60.186989,-33.431547],[-60.18696709,-33.43139178],[-60.18693,-33.431129],[-60.186651,-33.430833],[-60.186387,-33.430667],[-60.186146,-33.430587],[-60.185993,-33.430097],[-60.18613385,-33.42964448],[-60.18613392,-33.42964399],[-60.18613396,-33.42964301],[-60.186133,-33.429172],[-60.186084,-33.428851],[-60.186012,-33.428528],[-60.185908,-33.428291],[-60.185851,-33.427884],[-60.185432,-33.427655],[-60.18521,-33.427407],[-60.185132,-33.427079],[-60.185232,-33.42663],[-60.18529116,-33.42652768],[-60.185354,-33.426419],[-60.185647,-33.426144],[-60.185822,-33.425767],[-60.186026,-33.425343],[-60.1860822,-33.42512861],[-60.18615,-33.42487],[-60.18621176,-33.42454036],[-60.186236,-33.424411],[-60.186423,-33.423789],[-60.18662,-33.423271],[-60.186772,-33.422681],[-60.1867611,-33.42261991],[-60.186686,-33.422199],[-60.186739,-33.421487],[-60.18686,-33.420773],[-60.18695409,-33.42059727],[-60.187238,-33.420067],[-60.187368,-33.419772],[-60.18751,-33.419472],[-60.187587,-33.41918],[-60.18758682,-33.41917794],[-60.187564,-33.41891],[-60.187345,-33.418591],[-60.187144,-33.41835],[-60.1870799,-33.41810984],[-60.187056,-33.417829],[-60.18714429,-33.41758385],[-60.187159,-33.417543],[-60.187211,-33.417409],[-60.187311,-33.417316],[-60.187537,-33.417157],[-60.187869,-33.417146],[-60.18817,-33.417237],[-60.188375,-33.417237],[-60.1886,-33.41731],[-60.188892,-33.417389],[-60.189324,-33.417336],[-60.189368,-33.417007],[-60.189445,-33.416678],[-60.18944544,-33.41664926],[-60.189451,-33.416288],[-60.189468,-33.415749],[-60.189594,-33.415253],[-60.189838,-33.414782],[-60.189908,-33.414224],[-60.18976,-33.413622],[-60.189674,-33.413297],[-60.189681,-33.412672],[-60.189761,-33.412208],[-60.189994,-33.411893],[-60.190215,-33.411422],[-60.190249,-33.41091],[-60.190196,-33.410486],[-60.190093,-33.410149],[-60.190011,-33.409631],[-60.189874,-33.409236],[-60.189845,-33.40878],[-60.189543,-33.408196],[-60.18913782,-33.40783274],[-60.188832,-33.407398],[-60.188476,-33.407107],[-60.18813,-33.406827],[-60.187883,-33.406392],[-60.187578,-33.405883],[-60.187263,-33.405265],[-60.186935,-33.404748],[-60.186572,-33.404312],[-60.186208,-33.40391],[-60.185733,-33.403586],[-60.185199,-33.403253],[-60.184645,-33.402904],[-60.184333,-33.402594],[-60.183881,-33.402453],[-60.183318,-33.4022],[-60.18287,-33.40208],[-60.182489,-33.401786],[-60.182199,-33.401394],[-60.182113,-33.401001],[-60.182084,-33.400551],[-60.182083,-33.400059],[-60.181902,-33.399534],[-60.181768,-33.398982],[-60.181599,-33.398688],[-60.181373,-33.398345],[-60.181017,-33.398111],[-60.180607,-33.397925],[-60.180445,-33.397701],[-60.180201,-33.397331],[-60.179814,-33.396866],[-60.179526,-33.396557],[-60.179292,-33.396258],[-60.179071,-33.39609],[-60.178866,-33.395759],[-60.178741,-33.395285],[-60.178819,-33.394819],[-60.178675,-33.394419],[-60.178679,-33.394057],[-60.178568,-33.393842],[-60.178088,-33.393683],[-60.177634,-33.393473],[-60.176362,-33.392881],[-60.175674,-33.392431],[-60.174844,-33.391865],[-60.174476,-33.39152],[-60.173668,-33.390965],[-60.173296,-33.390381],[-60.172855,-33.389636],[-60.172388,-33.389054],[-60.172117,-33.388382],[-60.171892,-33.38802259],[-60.171655,-33.387644],[-60.171356,-33.386881],[-60.171233,-33.386326],[-60.171305,-33.385875],[-60.17144929,-33.38563287],[-60.171538,-33.385484],[-60.171787,-33.385106],[-60.17189763,-33.38490578],[-60.172239,-33.384288],[-60.172238,-33.383755],[-60.172242,-33.383311],[-60.171968,-33.382822],[-60.171447,-33.382197],[-60.170687,-33.381512],[-60.170287,-33.381163],[-60.169989,-33.380862],[-60.169791,-33.380519],[-60.169495,-33.379967],[-60.169542,-33.379594],[-60.1696232,-33.37947258],[-60.16997,-33.378954],[-60.170287,-33.37866],[-60.170604,-33.37838],[-60.171112,-33.378113],[-60.171591,-33.377719],[-60.171987,-33.377212],[-60.172211,-33.376945],[-60.172316,-33.376541],[-60.17218589,-33.37635186],[-60.172089,-33.376211],[-60.171645,-33.375895],[-60.171316,-33.375587],[-60.17122,-33.375188],[-60.17129593,-33.37511558],[-60.171696,-33.374734],[-60.172203,-33.37416],[-60.172282,-33.37384],[-60.17228167,-33.37371215],[-60.172281,-33.373454],[-60.172326,-33.373106],[-60.172006,-33.372842],[-60.171265,-33.372395],[-60.170942,-33.372],[-60.170443,-33.371336],[-60.17026,-33.370693],[-60.170178,-33.370362],[-60.17025018,-33.37022123],[-60.170479,-33.369775],[-60.17046837,-33.36954378],[-60.170458,-33.369318],[-60.170758,-33.368638],[-60.170836,-33.367998],[-60.170991,-33.367468],[-60.170939,-33.36675],[-60.170557,-33.366215],[-60.17024266,-33.36574906],[-60.17019,-33.365671],[-60.17010113,-33.36561128],[-60.16962,-33.365288],[-60.1691,-33.364916],[-60.168622,-33.364736],[-60.168129,-33.364291],[-60.16807078,-33.36411327],[-60.167901,-33.363595],[-60.16769082,-33.36342347],[-60.16708,-33.362925],[-60.166486,-33.362139],[-60.166294,-33.3613],[-60.16632786,-33.36109361],[-60.1663797,-33.36077758],[-60.166388,-33.360727],[-60.16639773,-33.36072351],[-60.167023,-33.360499],[-60.167532,-33.360383],[-60.168215,-33.360618],[-60.168612,-33.360417],[-60.16859796,-33.35968312],[-60.168597,-33.359633],[-60.168633,-33.359009],[-60.16862213,-33.35897621],[-60.16835,-33.358155],[-60.168042,-33.357596],[-60.16794809,-33.3571697],[-60.16790817,-33.35698851],[-60.1679045,-33.35697185],[-60.16783036,-33.35663531],[-60.16748828,-33.35508246],[-60.16728,-33.354137],[-60.16806811,-33.35275051],[-60.16555258,-33.35076938],[-60.15350342,-33.35601807],[-60.15046198,-33.35662153],[-60.13812256,-33.35906982]]]]},"geometry_name":"geom","properties":{"gid":1274,"objeto":"Departamento","fna":"Partido de Ramallo","gna":"Partido","nam":"Ramallo","in1":"06665","fdc":"ARBA - Gerencia de Servicios Catastrales","sag":"IGN"},"bbox":[-60.313175,-33.827512,-59.808429,-33.35076938]}],"totalFeatures":1,"numberMatched":1,"numberReturned":1,"timeStamp":"2026-08-17T21:18:33.357Z","crs":{"type":"name","properties":{"name":"urn:ogc:def:crs:EPSG::4326"}},"bbox":[-60.313175,-33.827512,-59.808429,-33.35076938]}